08478   12.66  0.15 K20CH 243.66398   48.44377  327.89719    7.91552  0.1002411  0.18388655   3.0626879  0 MPO593235  2135  25 1950-2020 0.45 M-v 3Ek Pan        0000   (8478) 1987 DO6           20200806
08479   13.48  0.15 K20CH 301.29477   78.45609  167.49894    1.32871  0.2276915  0.26032272   2.4291892  0 MPO593235  2725  23 1934-2021 0.48 M-v 3Ek Pan        0000   (8479) Held               20210114
08480   13.79  0.15 K20CH 141.85816   76.33529   10.47996    1.89426  0.1799582  0.22603286   2.6690394  0 MPO593235  2138  24 1979-2020 0.47 M-v 3Ek Pan        0000   (8480) 1987 RD1           20200714
08481   13.27  0.15 K20CH 101.26948  326.56949  236.39763    5.93340  0.2094838  0.18665768   3.0322999  0 MPO593235  1999  26 1956-2020 0.46 M-v 3Ek Pan        0000   (8481) 1988 LH            20201116
08482   13.29  0.15 K20CH  98.42905  225.51015  120.98771    3.10035  0.0795657  0.16173676   3.3362881  0 MPO593235  1918  27 1977-2021 0.51 M-v 3Ek Pan        0000   (8482) Wayneolm           20210109
08483   14.15  0.15 K20CH 327.55271  226.92119   49.82211    7.41657  0.0806905  0.26691157   2.3890457  0 MPO593235  1897  19 1981-2020 0.46 M-v 3Ek Pan        0000   (8483) Kinwalaniihsia     20200617
08484   13.66  0.15 K20CH 267.22210  353.87580   53.59708   12.64523  0.2952978  0.23705527   2.5856494  0 MPO593235  1450  20 1963-2020 0.42 M-v 3Ek Pan        0000   (8484) 1988 VM2           20200822
08485   13.41  0.15 K20CH 335.93735  228.35797  345.22090    8.98426  0.1608595  0.21559500   2.7545052  0 MPO593235  2107  23 1954-2021 0.49 M-v 3Ek Pan        0000   (8485) Satoru             20210114
08486   13.30  0.15 K20CH 115.73692   35.75597   24.45124   23.61775  0.1404763  0.17568829   3.1572394  0 MPO593235  1647  21 1989-2021 0.45 M-v 3Ek Pan        0000   (8486) 1989 QV            20210112
08487   13.92  0.15 K20CH 181.29919  108.01704  301.63678    4.25733  0.2322937  0.27110027   2.3643735  0 MPO593235  2090  21 1978-2020 0.46 M-v 3Ek Pan        0000   (8487) 1989 SQ            20200626
08488   14.49  0.15 K20CH 141.25359  213.24683   80.20219    4.61094  0.0826394  0.29033361   2.2587657  0 MPO593235  1854  23 1988-2021 0.49 M-v 3Ek Pan        0000   (8488) d'Argens           20210113
08489   13.37  0.15 K20CH 339.22142   98.17769  146.55965    5.85548  0.1126327  0.17661964   3.1461304  0 MPO593235  1793  24 1989-2021 0.49 M-v 3Ek Pan        0000   (8489) Boulder            20210114
08490   14.61  0.15 K20CH 156.40478  231.40739  179.63166    6.11749  0.2499917  0.26889737   2.3772691  0 MPO593235  1373  21 1978-2020 0.50 M-v 3Ek Pan        0000   (8490) 1989 TU10          20200521
08491   14.26  0.15 K20CH  90.52518  142.93537  311.75082    1.86454  0.1559721  0.26281469   2.4138093  0 MPO593235  1809  21 1989-2021 0.56 M-v 3Ek Pan        0000   (8491) Joelle-gilles      20210113
08492   13.64  0.15 K20CH 293.66413  107.67203  310.26422   14.36718  0.0825608  0.24429001   2.5343441  0 MPO593235  1842  21 1982-2021 0.44 M-v 3Ek Pan        0000   (8492) Kikuoka            20210112
08493   14.19  0.15 K20CH 357.45302  217.45627  244.44658    3.11516  0.1683974  0.25303702   2.4755974  0 MPO593235  1687  21 1986-2021 0.49 M-v 3Ek Pan        0000   (8493) Yachibozu          20210111
08494   13.52  0.15 K20CH  14.16373  128.32500  153.32267   11.94608  0.1709103  0.22668799   2.6638946  0 MPO593235  2209  24 1951-2020 0.47 M-v 3Ek Pan        0000   (8494) Edpatvega          20200929
08495   13.78  0.15 K20CH  11.77945  262.90629  118.99515    3.02996  0.0838062  0.19919031   2.9037368  0 MPO593235  1955  22 1990-2021 0.50 M-v 3Ek Pan        0000   (8495) 1990 QV1           20210112
08496   12.52  0.15 K20CH 113.23343   54.38885  354.28348   10.62645  0.0872604  0.17845929   3.1244718  0 MPO593235  2479  21 1990-2021 0.44 M-v 3Ek Pan        0000   (8496) Jandlsmith         20210114
08497   13.42  0.15 K20CH 247.92923   64.02423  358.29814   10.49572  0.1060541  0.19062756   2.9900533  0 MPO593235  1528  21 1982-2020 0.49 M-v 3Ek Pan        0000   (8497) 1990 RE7           20200812
08498   12.77  0.15 K20CH 286.98159   44.27705  342.54067   10.24865  0.1138509  0.18954084   3.0014712  0 MPO593235  1697  21 1977-2020 0.46 M-v 3Ek Pan        0000   (8498) Ufa                20201001
08499   13.10  0.15 K20CH 154.58748  330.68820  266.03112    0.90798  0.0101306  0.19899210   2.9056647  0 MPO593235  2254  21 1985-2021 0.44 M-v 3Ek Pan        0000   (8499) 1990 SC13          20210112
08500   12.93  0.15 K20CH 292.88556  172.67509  209.04006   12.31985  0.1397308  0.18936805   3.0032968  0 MPO593235  1875  23 1985-2020 0.46 M-v 3Ek Pan        0000   (8500) Hori               20200929
08501   12.90  0.15 K20CH  77.61079  181.48334   42.45260   10.80712  0.0652777  0.18695740   3.0290581  0 MPO593235  1802  29 1988-2020 0.45 M-v 3Ek Pan        0000   (8501) Wachholz           20201023
08502   12.80  0.15 K20CH  21.37835   83.05452  239.95539    9.46579  0.1052141  0.19102395   2.9859154  0 MPO593235  2495  24 1985-2021 0.44 M-v 3Ek Pan        0000   (8502) Bauhaus            20210114
08503   13.9   0.15 K20CH  74.56646  307.49884   95.60707    6.69747  0.1690016  0.30031937   2.2084140  0 MPO531094  1879  20 1980-2020 0.44 M-v 38h MPCW       0000   (8503) Masakatsu          20200108
08504   14.2   0.15 K20CH  57.31887  336.78255   82.04835    2.76466  0.1596864  0.29828887   2.2184247  0 MPO531094  1851  20 1988-2019 0.43 M-v 38h MPCW       0000   (8504) 1990 YC            20191130
08505   14.2   0.15 K20CH 306.74039  322.78215  172.15704    2.29768  0.1573140  0.29305470   2.2447617  0 MPO492851  1987  21 1981-2019 0.42 M-v 38h Williams   0000   (8505) 1990 YK            20190927
08506   13.95  0.15 K20CH 235.55827  163.63784    1.10661    3.97896  0.0736178  0.28761818   2.2729602  0 MPO593235  2841  21 1989-2021 0.63 M-v 3Ek Pan        0000   (8506) 1991 CN            20210112
08507   17.21  0.15 K20CH  99.75194  345.77407  317.41623   14.58953  0.5946884  0.44974229   1.6871754  0 MPO593235   259  15 1991-2021 0.61 M-v 3Ek Pan        1803   (8507) 1991 CB1           20210104
08508   13.82  0.15 K20CH 230.41430  228.90534  276.48809    3.87430  0.1330449  0.28522656   2.2856483  0 MPO593235  2498  25 1955-2021 0.53 M-v 3Ek Pan        0000   (8508) 1991 CU1           20210112
08509   14.14  0.15 K20CH  62.14040  240.66193   20.02484    4.89568  0.1819314  0.27579992   2.3374372  0 MPO593235  2297  23 1955-2021 0.46 M-v 3Ek Pan        0000   (8509) 1991 FV2           20210106
08510   13.64  0.15 K20CH 144.75224  280.20320  154.63757   11.81173  0.1216611  0.19169250   2.9789689  0 MPO593235  1522  22 1991-2020 0.50 M-v 3Ek Pan        0000   (8510) 1991 PT8           20200714
08511   13.15  0.15 K20CH  75.25783  226.78457  187.92487    9.16553  0.1527329  0.21367171   2.7710096  0 MPO593235  2166  21 1982-2021 0.49 M-v 3Ek Pan        0000   (8511) 1991 PY10          20210114
08512   13.05  0.15 K20CH 221.82445  248.23313  146.05416    7.19852  0.1631120  0.22674923   2.6634150  0 MPO593236  2494  20 1989-2020 0.47 M-v 3Ek Pan        0000   (8512) 1991 PC11          20200811
08513   13.11  0.15 K20CH  86.42610  131.86702  313.23171    6.83016  0.1771088  0.21674385   2.7447631  0 MPO593236  2265  21 1973-2021 0.43 M-v 3Ek Pan        0000   (8513) 1991 PK11          20210113
08514   14.03  0.15 K20CH  22.15394   19.46444  320.74770    3.90842  0.2338495  0.23775334   2.5805858  0 MPO593236  2245  23 1954-2021 0.47 M-v 3Ek Pan        0000   (8514) 1991 PK15          20210112
08515   13.37  0.15 K20CH 349.86002  332.95235  337.63758   13.23538  0.1640707  0.23218622   2.6216724  0 MPO593236  1628  24 1951-2020 0.44 M-v 3Ek Pan        0000   (8515) Corvan             20200905
08516   13.33  0.15 K20CH 124.85851  347.47272   51.42973    5.86183  0.1625073  0.21546560   2.7556079  0 MPO593236  2399  23 1973-2021 0.48 M-v 3Ek Pan        0000   (8516) Hyakkai            20210114
08517   12.89  0.15 K20CH  86.05427  316.44864  101.14246    6.88998  0.2131202  0.17388336   3.1790501  0 MPO593236  1946  25 1979-2021 0.48 M-v 3Ek Pan        0000   (8517) 1992 BB5           20210114
08518   12.97  0.15 K20CH 258.40123  234.53161  115.85901    2.26174  0.1769637  0.18015791   3.1048013  0 MPO593236  2328  25 1962-2020 0.48 M-v 3Ek Pan        0000   (8518) 1992 DM6           20200714
08519   13.81  0.15 K20CH 176.38268  126.70195  190.25749    6.00014  0.0682192  0.16830806   3.2488733  0 MPO593236  1381  23 1977-2021 0.53 M-v 3Ek Pan        0000   (8519) 1992 DB10          20210112
08520   13.13  0.15 K20CH 213.01030  162.41594  162.19560   12.29466  0.0580685  0.17245480   3.1965821  0 MPO593236  1972  24 1989-2021 0.48 M-v 3Ek Pan        0000   (8520) 1992 EC12          20210112
08521   14.3   0.15 K20CH  77.50503  339.30403   37.72911    6.55050  0.1810827  0.29743576   2.2226646  0 MPO526022  1785  18 1960-2019 0.51 M-v 38h Williams   0000   (8521) Boulainvilliers    20191108
08522   14.04  0.15 K20CH  77.64771  345.80505  333.45037    1.81602  0.1528883  0.28945705   2.2633235  0 MPO593236  2296  23 1972-2021 0.45 M-v 3Ek Pan        0000   (8522) 1992 ML            20210113
08523   14.56  0.15 K20CH 270.37605  210.67951  161.40462    4.54134  0.1286749  0.27352662   2.3503704  0 MPO593236  1601  21 1980-2020 0.53 M-v 3Ek Pan        0000   (8523) Bouillabaisse      20200710
08524   14.49  0.15 K20CH 346.75144  272.26329  344.03165    7.19080  0.1087200  0.27043758   2.3682344  0 MPO593236  1549  21 1991-2020 0.51 M-v 3Ek Pan        0000   (8524) Paoloruffini       20200526
08525   14.38  0.15 K20CH  47.07522   77.22463   83.03665    3.06295  0.1621199  0.26421575   2.4052686  0 MPO593236  1679  20 1992-2020 0.52 M-v 3Ek Pan        0000   (8525) Nielsabel          20200622
08526   13.94  0.15 K20CH 296.90109  151.29698  149.59740    6.21761  0.1398315  0.26776108   2.3839899  0 MPO593236  2416  23 1950-2020 0.49 M-v 3Ek Pan        0000   (8526) Takeuchiyukou      20200617
